ORBCOMM FM24            
1 25478U 98053D   25258.54095826  .00000915  00000+0  34419-3 0  9990
2 25478  45.0073 200.6285 0004204 321.4641  38.5907 14.38296529410456
ORBCOMM FM25            
1 25479U 98053E   25258.51410832  .00001061  00000+0  39204-3 0  9996
2 25479  45.0064 199.0397 0006433 332.0941  27.9562 14.38266231410747
ORBCOMM FM26            
1 25480U 98053F   25258.51604948  .00000754  00000+0  29779-3 0  9995
2 25480  45.0062 196.1477 0007915 347.2755  12.7893 14.37295222410640
ORBCOMM FM27            
1 25481U 98053G   25258.56930509  .00001036  00000+0  38374-3 0  9991
2 25481  45.0047 198.9471 0002738 324.9288  35.1380 14.38298750410683
ORBCOMM FM28            
1 25482U 98053H   25258.38737090  .00000991  00000+0  36770-3 0  9999
2 25482  45.0049 137.1870 0005560  27.7947 332.3197 14.38467322411345
ORBCOMM FM30            
1 25980U 99065A   25258.35671277  .00001020  00000+0  38497-3 0  9999
2 25980  45.0329  22.8609 0006362 114.4263 245.7250 14.37466163347420
ORBCOMM FM31            
1 25981U 99065B   25258.61195617  .00000697  00000+0  27832-3 0  9998
2 25981  45.0245  15.1212 0004492 148.6899 211.4217 14.37395204347014
ORBCOMM FM32            
1 25982U 99065C   25258.44024116  .00001048  00000+0  40209-3 0  9999
2 25982  45.0167  33.1181 0006778 132.9644 227.1773 14.36450561347575
